QIANFAN-18              
1 60396U 24140T   26062.59100153  .00000122  00000+0  16965-3 0  9999
2 60396  88.9724 290.6106 0013299 321.3053  38.7144 13.51003272 78443
QIANFAN-19              
1 61552U 24185A   26062.59240380  .00000640  00000+0  32731-3 0  9994
2 61552  88.9757  68.6581 0008766  56.0058 304.1960 14.14384625 81099
QIANFAN-20              
1 61553U 24185B   26062.58250205  .00000625  00000+0  35356-3 0  9990
2 61553  88.9754  69.0646 0007921  87.3608 272.8482 14.08930952 80872
QIANFAN-21              
1 61554U 24185C   26062.56578721  .00000800  00000+0  35062-3 0  9994
2 61554  88.9675  67.4936 0012957  98.3761 261.8900 14.22724842 81460
QIANFAN-22              
1 61555U 24185D   26062.55676152  .00000292  00000+0  24124-3 0  9993
2 61555  88.9739  70.3755 0008518 104.8499 255.3616 13.86337479 80133
QIANFAN-23              
1 61556U 24185E   26062.59511144  .00000688  00000+0  33947-3 0  9999
2 61556  88.9749  68.4294 0009665  63.9654 296.2528 14.16389492 81192
QIANFAN-24              
1 61557U 24185F   26062.57061935  .00000962  00000+0  41320-3 0  9995
2 61557  88.9733  67.7050 0010805  44.5558 315.6502 14.23928139 81524
QIANFAN-25              
1 61558U 24185G   26062.57293359  .00000542  00000+0  32200-3 0  9994
2 61558  88.9746  69.0231 0011930  70.8216 289.4256 14.05992833 80860
QIANFAN-26              
1 61559U 24185H   26062.57665602  .00000274  00000+0  26083-3 0  9993
2 61559  88.9744  71.0100 0007582 117.4814 242.7125 13.77860208 79804
QIANFAN-27              
1 61560U 24185J   26062.57709396  .00000717  00000+0  28652-3 0  9990
2 61560  88.9746  67.4483 0008893  38.0902 322.0919 14.27440722 81697
QIANFAN-28              
1 61561U 24185K   26062.58771608  .00001113  00000+0  44137-3 0  9994
2 61561  88.9761  67.4542 0008497  38.9612 321.2193 14.28207755 81714
QIANFAN-29              
1 61562U 24185L   26062.61449824  .00000215  00000+0  31436-3 0  9991
2 61562  88.9717  72.9378 0010175 165.1833 194.9618 13.51042716 78710
QIANFAN-30              
1 61563U 24185M   26062.57651712  .00000212  00000+0  31448-3 0  9998
2 61563  88.9736  72.4982 0008502 149.1414 211.0237 13.50017864 78977
QIANFAN-31              
1 61564U 24185N   26062.58599981  .00000223  00000+0  29168-3 0  9997
2 61564  88.9721  72.1704 0008191 140.4885 219.6869 13.58002137 79130
QIANFAN-32              
1 61565U 24185P   26062.57435742  .00000175  00000+0  25368-3 0  9995
2 61565  88.9781  72.6573 0009514 178.4468 181.6715 13.50763287 78953
QIANFAN-33              
1 61566U 24185Q   26062.57964270  .00000507  00000+0  35640-3 0  9992
2 61566  88.9735  69.7781 0009331  78.5312 281.6912 13.96620921 80440
QIANFAN-34              
1 61567U 24185R   26062.57016672  .00000523  00000+0  33195-3 0  9998
2 61567  88.9711  69.2353 0008263  82.2365 277.9753 14.02380862 80680
