[{"OBJECT_NAME":"QIANFAN-18","OBJECT_ID":"2024-140T","EPOCH":"2026-03-03T14:11:02.532192","MEAN_MOTION":13.51003272,"ECCENTRICITY":0.00132996,"INCLINATION":88.9724,"RA_OF_ASC_NODE":290.6106,"ARG_OF_PERICENTER":321.3053,"MEAN_ANOMALY":38.7144,"EPHEMERIS_TYPE":0,"CLASSIFICATION_TYPE":"U","NORAD_CAT_ID":60396,"ELEMENT_SET_NO":999,"REV_AT_EPOCH":7844,"BSTAR":0.00016965449,"MEAN_MOTION_DOT":1.22e-6,"MEAN_MOTION_DDOT":0},{"OBJECT_NAME":"QIANFAN-19","OBJECT_ID":"2024-185A","EPOCH":"2026-03-03T14:13:03.688320","MEAN_MOTION":14.14384625,"ECCENTRICITY":0.00087668,"INCLINATION":88.9757,"RA_OF_ASC_NODE":68.6581,"ARG_OF_PERICENTER":56.0058,"MEAN_ANOMALY":304.196,"EPHEMERIS_TYPE":0,"CLASSIFICATION_TYPE":"U","NORAD_CAT_ID":61552,"ELEMENT_SET_NO":999,"REV_AT_EPOCH":8109,"BSTAR":0.00032730911,"MEAN_MOTION_DOT":6.4e-6,"MEAN_MOTION_DDOT":0},{"OBJECT_NAME":"QIANFAN-20","OBJECT_ID":"2024-185B","EPOCH":"2026-03-03T13:58:48.177120","MEAN_MOTION":14.08930952,"ECCENTRICITY":0.00079212,"INCLINATION":88.9754,"RA_OF_ASC_NODE":69.0646,"ARG_OF_PERICENTER":87.3608,"MEAN_ANOMALY":272.8482,"EPHEMERIS_TYPE":0,"CLASSIFICATION_TYPE":"U","NORAD_CAT_ID":61553,"ELEMENT_SET_NO":999,"REV_AT_EPOCH":8087,"BSTAR":0.00035355645,"MEAN_MOTION_DOT":6.25e-6,"MEAN_MOTION_DDOT":0},{"OBJECT_NAME":"QIANFAN-21","OBJECT_ID":"2024-185C","EPOCH":"2026-03-03T13:34:44.014944","MEAN_MOTION":14.22724842,"ECCENTRICITY":0.00129579,"INCLINATION":88.9675,"RA_OF_ASC_NODE":67.4936,"ARG_OF_PERICENTER":98.3761,"MEAN_ANOMALY":261.89,"EPHEMERIS_TYPE":0,"CLASSIFICATION_TYPE":"U","NORAD_CAT_ID":61554,"ELEMENT_SET_NO":999,"REV_AT_EPOCH":8146,"BSTAR":0.00035061843,"MEAN_MOTION_DOT":8.0e-6,"MEAN_MOTION_DDOT":0},{"OBJECT_NAME":"QIANFAN-22","OBJECT_ID":"2024-185D","EPOCH":"2026-03-03T13:21:44.195328","MEAN_MOTION":13.86337479,"ECCENTRICITY":0.0008518,"INCLINATION":88.9739,"RA_OF_ASC_NODE":70.3755,"ARG_OF_PERICENTER":104.8499,"MEAN_ANOMALY":255.3616,"EPHEMERIS_TYPE":0,"CLASSIFICATION_TYPE":"U","NORAD_CAT_ID":61555,"ELEMENT_SET_NO":999,"REV_AT_EPOCH":8013,"BSTAR":0.0002412391,"MEAN_MOTION_DOT":2.92e-6,"MEAN_MOTION_DDOT":0},{"OBJECT_NAME":"QIANFAN-23","OBJECT_ID":"2024-185E","EPOCH":"2026-03-03T14:16:57.628416","MEAN_MOTION":14.16389492,"ECCENTRICITY":0.00096656,"INCLINATION":88.9749,"RA_OF_ASC_NODE":68.4294,"ARG_OF_PERICENTER":63.9654,"MEAN_ANOMALY":296.2528,"EPHEMERIS_TYPE":0,"CLASSIFICATION_TYPE":"U","NORAD_CAT_ID":61556,"ELEMENT_SET_NO":999,"REV_AT_EPOCH":8119,"BSTAR":0.00033947361,"MEAN_MOTION_DOT":6.88e-6,"MEAN_MOTION_DDOT":0},{"OBJECT_NAME":"QIANFAN-24","OBJECT_ID":"2024-185F","EPOCH":"2026-03-03T13:41:41.511840","MEAN_MOTION":14.23928139,"ECCENTRICITY":0.00108058,"INCLINATION":88.9733,"RA_OF_ASC_NODE":67.705,"ARG_OF_PERICENTER":44.5558,"MEAN_ANOMALY":315.6502,"EPHEMERIS_TYPE":0,"CLASSIFICATION_TYPE":"U","NORAD_CAT_ID":61557,"ELEMENT_SET_NO":999,"REV_AT_EPOCH":8152,"BSTAR":0.00041319786,"MEAN_MOTION_DOT":9.62e-6,"MEAN_MOTION_DDOT":0},{"OBJECT_NAME":"QIANFAN-25","OBJECT_ID":"2024-185G","EPOCH":"2026-03-03T13:45:01.462176","MEAN_MOTION":14.05992833,"ECCENTRICITY":0.00119305,"INCLINATION":88.9746,"RA_OF_ASC_NODE":69.0231,"ARG_OF_PERICENTER":70.8216,"MEAN_ANOMALY":289.4256,"EPHEMERIS_TYPE":0,"CLASSIFICATION_TYPE":"U","NORAD_CAT_ID":61558,"ELEMENT_SET_NO":999,"REV_AT_EPOCH":8086,"BSTAR":0.00032200327,"MEAN_MOTION_DOT":5.42e-6,"MEAN_MOTION_DDOT":0},{"OBJECT_NAME":"QIANFAN-26","OBJECT_ID":"2024-185H","EPOCH":"2026-03-03T13:50:23.080128","MEAN_MOTION":13.77860208,"ECCENTRICITY":0.00075823,"INCLINATION":88.9744,"RA_OF_ASC_NODE":71.01,"ARG_OF_PERICENTER":117.4814,"MEAN_ANOMALY":242.7125,"EPHEMERIS_TYPE":0,"CLASSIFICATION_TYPE":"U","NORAD_CAT_ID":61559,"ELEMENT_SET_NO":999,"REV_AT_EPOCH":7980,"BSTAR":0.00026083181,"MEAN_MOTION_DOT":2.74e-6,"MEAN_MOTION_DDOT":0},{"OBJECT_NAME":"QIANFAN-27","OBJECT_ID":"2024-185J","EPOCH":"2026-03-03T13:51:00.918144","MEAN_MOTION":14.27440722,"ECCENTRICITY":0.00088936,"INCLINATION":88.9746,"RA_OF_ASC_NODE":67.4483,"ARG_OF_PERICENTER":38.0902,"MEAN_ANOMALY":322.0919,"EPHEMERIS_TYPE":0,"CLASSIFICATION_TYPE":"U","NORAD_CAT_ID":61560,"ELEMENT_SET_NO":999,"REV_AT_EPOCH":8169,"BSTAR":0.00028651939,"MEAN_MOTION_DOT":7.17e-6,"MEAN_MOTION_DDOT":0},{"OBJECT_NAME":"QIANFAN-28","OBJECT_ID":"2024-185K","EPOCH":"2026-03-03T14:06:18.669312","MEAN_MOTION":14.28207755,"ECCENTRICITY":0.0008497,"INCLINATION":88.9761,"RA_OF_ASC_NODE":67.4542,"ARG_OF_PERICENTER":38.9612,"MEAN_ANOMALY":321.2193,"EPHEMERIS_TYPE":0,"CLASSIFICATION_TYPE":"U","NORAD_CAT_ID":61561,"ELEMENT_SET_NO":999,"REV_AT_EPOCH":8171,"BSTAR":0.00044137329,"MEAN_MOTION_DOT":1.113e-5,"MEAN_MOTION_DDOT":0},{"OBJECT_NAME":"QIANFAN-29","OBJECT_ID":"2024-185L","EPOCH":"2026-03-03T14:44:52.647936","MEAN_MOTION":13.51042716,"ECCENTRICITY":0.0010175,"INCLINATION":88.9717,"RA_OF_ASC_NODE":72.9378,"ARG_OF_PERICENTER":165.1833,"MEAN_ANOMALY":194.9618,"EPHEMERIS_TYPE":0,"CLASSIFICATION_TYPE":"U","NORAD_CAT_ID":61562,"ELEMENT_SET_NO":999,"REV_AT_EPOCH":7871,"BSTAR":0.00031435688,"MEAN_MOTION_DOT":2.15e-6,"MEAN_MOTION_DDOT":0},{"OBJECT_NAME":"QIANFAN-30","OBJECT_ID":"2024-185M","EPOCH":"2026-03-03T13:50:11.079168","MEAN_MOTION":13.50017864,"ECCENTRICITY":0.00085027,"INCLINATION":88.9736,"RA_OF_ASC_NODE":72.4982,"ARG_OF_PERICENTER":149.1414,"MEAN_ANOMALY":211.0237,"EPHEMERIS_TYPE":0,"CLASSIFICATION_TYPE":"U","NORAD_CAT_ID":61563,"ELEMENT_SET_NO":999,"REV_AT_EPOCH":7897,"BSTAR":0.00031448285,"MEAN_MOTION_DOT":2.12e-6,"MEAN_MOTION_DDOT":0},{"OBJECT_NAME":"QIANFAN-31","OBJECT_ID":"2024-185N","EPOCH":"2026-03-03T14:03:50.383584","MEAN_MOTION":13.58002137,"ECCENTRICITY":0.00081913,"INCLINATION":88.9721,"RA_OF_ASC_NODE":72.1704,"ARG_OF_PERICENTER":140.4885,"MEAN_ANOMALY":219.6869,"EPHEMERIS_TYPE":0,"CLASSIFICATION_TYPE":"U","NORAD_CAT_ID":61564,"ELEMENT_SET_NO":999,"REV_AT_EPOCH":7913,"BSTAR":0.00029167589,"MEAN_MOTION_DOT":2.23e-6,"MEAN_MOTION_DDOT":0},{"OBJECT_NAME":"QIANFAN-32","OBJECT_ID":"2024-185P","EPOCH":"2026-03-03T13:47:04.481088","MEAN_MOTION":13.50763287,"ECCENTRICITY":0.00095149,"INCLINATION":88.9781,"RA_OF_ASC_NODE":72.6573,"ARG_OF_PERICENTER":178.4468,"MEAN_ANOMALY":181.6715,"EPHEMERIS_TYPE":0,"CLASSIFICATION_TYPE":"U","NORAD_CAT_ID":61565,"ELEMENT_SET_NO":999,"REV_AT_EPOCH":7895,"BSTAR":0.00025367767,"MEAN_MOTION_DOT":1.75e-6,"MEAN_MOTION_DDOT":0},{"OBJECT_NAME":"QIANFAN-33","OBJECT_ID":"2024-185Q","EPOCH":"2026-03-03T13:54:41.129280","MEAN_MOTION":13.96620921,"ECCENTRICITY":0.0009331,"INCLINATION":88.9735,"RA_OF_ASC_NODE":69.7781,"ARG_OF_PERICENTER":78.5312,"MEAN_ANOMALY":281.6912,"EPHEMERIS_TYPE":0,"CLASSIFICATION_TYPE":"U","NORAD_CAT_ID":61566,"ELEMENT_SET_NO":999,"REV_AT_EPOCH":8044,"BSTAR":0.00035640046,"MEAN_MOTION_DOT":5.07e-6,"MEAN_MOTION_DDOT":0},{"OBJECT_NAME":"QIANFAN-34","OBJECT_ID":"2024-185R","EPOCH":"2026-03-03T13:41:02.404608","MEAN_MOTION":14.02380862,"ECCENTRICITY":0.00082636,"INCLINATION":88.9711,"RA_OF_ASC_NODE":69.2353,"ARG_OF_PERICENTER":82.2365,"MEAN_ANOMALY":277.9753,"EPHEMERIS_TYPE":0,"CLASSIFICATION_TYPE":"U","NORAD_CAT_ID":61567,"ELEMENT_SET_NO":999,"REV_AT_EPOCH":8068,"BSTAR":0.00033195216,"MEAN_MOTION_DOT":5.23e-6,"MEAN_MOTION_DDOT":0}]
